{
  "type": "FeatureCollection",
  "features": [
    {
      "type": "Feature",
      "properties": {
        "norad_id": 43260,
        "name": "GAOFEN-1 03",
        "group": "resource",
        "lat": -55.21024889973103,
        "lon": 55.41139380761942,
        "alt_km": 646.3060362457354,
        "timestamp": "2025-12-11T22:43:46.929147+00:00",
        "meta_object_name": "GAOFEN-1 03",
        "meta_object_id": "2018-031B",
        "meta_epoch": "2025-12-11T14:51:01.706400",
        "meta_mean_motion": 14.76438819,
        "meta_eccentricity": 0.00020311,
        "meta_inclination": 98.0798,
        "meta_ra_of_asc_node": 43.2845,
        "meta_arg_of_pericenter": 327.3363,
        "meta_mean_anomaly": 32.772,
        "meta_ephemeris_type": 0,
        "meta_classification_type": "U",
        "meta_norad_cat_id": 43260,
        "meta_element_set_no": 999,
        "meta_rev_at_epoch": 41501,
        "meta_bstar": 0.00046891608,
        "meta_mean_motion_dot": 3.21e-05,
        "meta_mean_motion_ddot": 0,
        "tle_line1": "1 43260U 18031B   25345.61876975  .00003210  00000+0  46892-3 0  9993",
        "tle_line2": "2 43260  98.0798  43.2845 0002031 327.3363  32.7720 14.76438819415010"
      },
      "geometry": {
        "type": "Point",
        "coordinates": [
          55.41139380761942,
          -55.21024889973103
        ]
      }
    },
    {
      "type": "Feature",
      "properties": {
        "norad_id": 43262,
        "name": "GAOFEN-1 04",
        "group": "resource",
        "lat": 71.52074316511778,
        "lon": 18.624610275322333,
        "alt_km": 632.914283290399,
        "timestamp": "2025-12-11T22:43:46.929156+00:00",
        "meta_object_name": "GAOFEN-1 04",
        "meta_object_id": "2018-031D",
        "meta_epoch": "2025-12-11T14:15:58.828896",
        "meta_mean_motion": 14.76446458,
        "meta_eccentricity": 0.00011132,
        "meta_inclination": 98.0803,
        "meta_ra_of_asc_node": 43.4289,
        "meta_arg_of_pericenter": 56.3738,
        "meta_mean_anomaly": 303.7578,
        "meta_ephemeris_type": 0,
        "meta_classification_type": "U",
        "meta_norad_cat_id": 43262,
        "meta_element_set_no": 999,
        "meta_rev_at_epoch": 41500,
        "meta_bstar": 0.00026453351,
        "meta_mean_motion_dot": 1.789e-05,
        "meta_mean_motion_ddot": 0,
        "tle_line1": "1 43262U 18031D   25345.59443089  .00001789  00000+0  26453-3 0  9998",
        "tle_line2": "2 43262  98.0803  43.4289 0001113  56.3738 303.7578 14.76446458415007"
      },
      "geometry": {
        "type": "Point",
        "coordinates": [
          18.624610275322333,
          71.52074316511778
        ]
      }
    },
    {
      "type": "Feature",
      "properties": {
        "norad_id": 43437,
        "name": "SENTINEL-3B",
        "group": "resource",
        "lat": 21.263856178799614,
        "lon": 47.75662503604574,
        "alt_km": 802.2796991214245,
        "timestamp": "2025-12-11T22:43:46.929167+00:00",
        "meta_object_name": "SENTINEL-3B",
        "meta_object_id": "2018-039A",
        "meta_epoch": "2025-12-11T10:50:50.552736",
        "meta_mean_motion": 14.26742264,
        "meta_eccentricity": 0.00015576,
        "meta_inclination": 98.6268,
        "meta_ra_of_asc_node": 50.6556,
        "meta_arg_of_pericenter": 104.2946,
        "meta_mean_anomaly": 255.8408,
        "meta_ephemeris_type": 0,
        "meta_classification_type": "U",
        "meta_norad_cat_id": 43437,
        "meta_element_set_no": 999,
        "meta_rev_at_epoch": 39735,
        "meta_bstar": 0.00012251697,
        "meta_mean_motion_dot": 2.53e-06,
        "meta_mean_motion_ddot": 0,
        "tle_line1": "1 43437U 18039A   25345.45197399  .00000253  00000+0  12252-3 0  9992",
        "tle_line2": "2 43437  98.6268  50.6556 0001557 104.2946 255.8408 14.26742264397350"
      },
      "geometry": {
        "type": "Point",
        "coordinates": [
          47.75662503604574,
          21.263856178799614
        ]
      }
    },
    {
      "type": "Feature",
      "properties": {
        "norad_id": 43461,
        "name": "GAOFEN-5 01",
        "group": "resource",
        "lat": -80.32905165618065,
        "lon": 9.41841695453731,
        "alt_km": 698.9261444579497,
        "timestamp": "2025-12-11T22:43:46.929177+00:00",
        "meta_object_name": "GAOFEN-5 01",
        "meta_object_id": "2018-043A",
        "meta_epoch": "2025-12-11T14:53:52.202112",
        "meta_mean_motion": 14.60408258,
        "meta_eccentricity": 0.00010301,
        "meta_inclination": 98.4325,
        "meta_ra_of_asc_node": 308.5684,
        "meta_arg_of_pericenter": 344.6055,
        "meta_mean_anomaly": 15.5113,
        "meta_ephemeris_type": 0,
        "meta_classification_type": "U",
        "meta_norad_cat_id": 43461,
        "meta_element_set_no": 999,
        "meta_rev_at_epoch": 40431,
        "meta_bstar": 0.00017810233,
        "meta_mean_motion_dot": 8.13e-06,
        "meta_mean_motion_ddot": 0,
        "tle_line1": "1 43461U 18043A   25345.62074308  .00000813  00000+0  17810-3 0  9994",
        "tle_line2": "2 43461  98.4325 308.5684 0001030 344.6055  15.5113 14.60408258404312"
      },
      "geometry": {
        "type": "Point",
        "coordinates": [
          9.41841695453731,
          -80.32905165618065
        ]
      }
    },
    {
      "type": "Feature",
      "properties": {
        "norad_id": 43484,
        "name": "GAOFEN-6",
        "group": "resource",
        "lat": -43.86157610339869,
        "lon": -137.33225025165729,
        "alt_km": 655.5653875084372,
        "timestamp": "2025-12-11T22:43:46.929187+00:00",
        "meta_object_name": "GAOFEN-6",
        "meta_object_id": "2018-048A",
        "meta_epoch": "2025-12-11T15:12:44.397216",
        "meta_mean_motion": 14.76564877,
        "meta_eccentricity": 0.0013283,
        "meta_inclination": 97.8027,
        "meta_ra_of_asc_node": 49.9375,
        "meta_arg_of_pericenter": 66.7065,
        "meta_mean_anomaly": 293.5542,
        "meta_ephemeris_type": 0,
        "meta_classification_type": "U",
        "meta_norad_cat_id": 43484,
        "meta_element_set_no": 999,
        "meta_rev_at_epoch": 40571,
        "meta_bstar": 0.0002668239,
        "meta_mean_motion_dot": 1.815e-05,
        "meta_mean_motion_ddot": 0,
        "tle_line1": "1 43484U 18048A   25345.63384719  .00001815  00000+0  26682-3 0  9995",
        "tle_line2": "2 43484  97.8027  49.9375 0013283  66.7065 293.5542 14.76564877405714"
      },
      "geometry": {
        "type": "Point",
        "coordinates": [
          -137.33225025165729,
          -43.86157610339869
        ]
      }
    },
    {
      "type": "Feature",
      "properties": {
        "norad_id": 43585,
        "name": "GAOFEN-11 01",
        "group": "resource",
        "lat": -3.9071586453510516,
        "lon": -131.6040418909478,
        "alt_km": 424.8609871656772,
        "timestamp": "2025-12-11T22:43:46.929197+00:00",
        "meta_object_name": "GAOFEN-11 01",
        "meta_object_id": "2018-063A",
        "meta_epoch": "2025-12-11T15:44:14.798112",
        "meta_mean_motion": 15.4916437,
        "meta_eccentricity": 0.00044231,
        "meta_inclination": 97.1555,
        "meta_ra_of_asc_node": 48.5987,
        "meta_arg_of_pericenter": 318.787,
        "meta_mean_anomaly": 41.3047,
        "meta_ephemeris_type": 0,
        "meta_classification_type": "U",
        "meta_norad_cat_id": 43585,
        "meta_element_set_no": 999,
        "meta_rev_at_epoch": 41125,
        "meta_bstar": 0.00026766097,
        "meta_mean_motion_dot": 0.00014488,
        "meta_mean_motion_ddot": 0,
        "tle_line1": "1 43585U 18063A   25345.65572683  .00014488  00000+0  26766-3 0  9998",
        "tle_line2": "2 43585  97.1555  48.5987 0004423 318.7870  41.3047 15.49164370411259"
      },
      "geometry": {
        "type": "Point",
        "coordinates": [
          -131.6040418909478,
          -3.9071586453510516
        ]
      }
    },
    {
      "type": "Feature",
      "properties": {
        "norad_id": 43613,
        "name": "ICESAT-2",
        "group": "resource",
        "lat": -20.331725075617978,
        "lon": -118.7330654299752,
        "alt_km": 487.90380944565186,
        "timestamp": "2025-12-11T22:43:46.929207+00:00",
        "meta_object_name": "ICESAT-2",
        "meta_object_id": "2018-070A",
        "meta_epoch": "2025-12-11T13:23:24.334656",
        "meta_mean_motion": 15.28347411,
        "meta_eccentricity": 0.00026313,
        "meta_inclination": 92.0044,
        "meta_ra_of_asc_node": 240.4184,
        "meta_arg_of_pericenter": 151.9121,
        "meta_mean_anomaly": 208.2271,
        "meta_ephemeris_type": 0,
        "meta_classification_type": "U",
        "meta_norad_cat_id": 43613,
        "meta_element_set_no": 999,
        "meta_rev_at_epoch": 40380,
        "meta_bstar": 0.00069918646,
        "meta_mean_motion_dot": 0.00019316,
        "meta_mean_motion_ddot": 0,
        "tle_line1": "1 43613U 18070A   25345.55792054  .00019316  00000+0  69919-3 0  9995",
        "tle_line2": "2 43613  92.0044 240.4184 0002631 151.9121 208.2271 15.28347411403806"
      },
      "geometry": {
        "type": "Point",
        "coordinates": [
          -118.7330654299752,
          -20.331725075617978
        ]
      }
    }
  ]
}